{
"type": "FeatureCollection",
"name": "inzai_boundary",
"crs": { "type": "name", "properties": { "name": "urn:ogc:def:crs:OGC:1.3:CRS84" } },
"features": [
{ "type": "Feature", "properties": { "name": "白井市+印西市(N03行政界+1kmバッファ)" }, "geometry": { "type": "Polygon", "coordinates": [ [ [ 140.094660563131526, 35.839802819211116 ], [ 140.095214630579221, 35.84011706623717 ], [ 140.09664387775095, 35.840876019872383 ], [ 140.097217472556906, 35.841160783065455 ], [ 140.098528061712727, 35.841767780974656 ], [ 140.098491695107072, 35.841878923184943 ], [ 140.098315519379128, 35.842761377223312 ], [ 140.0982475777422, 35.843653700874057 ], [ 140.098288542269955, 35.844547115107069 ], [ 140.098438013568568, 35.845432829871889 ], [ 140.098694524563342, 35.846302130584284 ], [ 140.099055554794916, 35.847146463881309 ], [ 140.099258610700019, 35.847554875827996 ], [ 140.099499701887567, 35.848040506358011 ], [ 140.100008632930439, 35.849065225995396 ], [ 140.100905065505913, 35.850887952129774 ], [ 140.100909463973181, 35.85089688154337 ], [ 140.100946660180625, 35.850972277698276 ], [ 140.10097693319247, 35.85103405048573 ], [ 140.1009855497243, 35.851051579339341 ], [ 140.101034103484437, 35.851150054345233 ], [ 140.101079902176565, 35.851243237282816 ], [ 140.101521018750844, 35.852029225846344 ], [ 140.102052571387617, 35.852777208928849 ], [ 140.102669675829958, 35.853480310118378 ], [ 140.103366660875281, 35.854132065442563 ], [ 140.104137120464827, 35.854726482829953 ], [ 140.104973972550312, 35.855258097235655 ], [ 140.105869524197317, 35.85572202092316 ], [ 140.106815542326387, 35.856113988438089 ], [ 140.107803329441424, 35.856430395859007 ], [ 140.108823803646175, 35.856668333962645 ], [ 140.109382599295429, 35.856752536896536 ], [ 140.109524663356837, 35.856903295243882 ], [ 140.110245770143649, 35.857533475692755 ], [ 140.111037479339302, 35.858104747073028 ], [ 140.111892562232669, 35.858611892378377 ], [ 140.112803210902484, 35.85905028012958 ], [ 140.113761109540604, 35.859415906705351 ], [ 140.114757510433407, 35.859705432937034 ], [ 140.115783313904757, 35.859916214631625 ], [ 140.116829151488872, 35.860046326743252 ], [ 140.117885471569394, 35.860094580970994 ], [ 140.118942626699521, 35.860060536621816 ], [ 140.119990961801676, 35.859944504639074 ], [ 140.121020902436953, 35.859747544759081 ], [ 140.122023042334376, 35.859471455822607 ], [ 140.122431548380717, 35.859340890612053 ], [ 140.122676977078015, 35.859262565113021 ], [ 140.123678274396099, 35.85889538636274 ], [ 140.124629953699838, 35.858449259664077 ], [ 140.125522650944419, 35.857928575105674 ], [ 140.126347582987108, 35.857338456362854 ], [ 140.127096634037457, 35.856684710238369 ], [ 140.127762435514597, 35.855973769480123 ], [ 140.128338438525503, 35.855212629441034 ], [ 140.128818978251417, 35.854408779206253 ], [ 140.129199329610628, 35.853570127867485 ], [ 140.129416831572001, 35.852889353114911 ], [ 140.131339890004313, 35.851795610679275 ], [ 140.131978622006585, 35.851432335054263 ], [ 140.13215579102237, 35.851502603091191 ], [ 140.132353300911802, 35.851574329511472 ], [ 140.133178930910361, 35.851874376943805 ], [ 140.134466326965651, 35.852266164458797 ], [ 140.135001930552306, 35.852398952494937 ], [ 140.135946306970709, 35.852596536748486 ], [ 140.136241332091544, 35.85264710110728 ], [ 140.137385574957051, 35.852792808724836 ], [ 140.138542255992007, 35.852840394549318 ], [ 140.139427309754495, 35.852801321011519 ], [ 140.139484074719377, 35.85282791929864 ], [ 140.139495445559788, 35.852833240016544 ], [ 140.139726985498442, 35.852941434823528 ], [ 140.140819728161972, 35.853469402500991 ], [ 140.141819355576558, 35.853897806344008 ], [ 140.142867412260586, 35.854241043574618 ], [ 140.143952983983638, 35.854495539649214 ], [ 140.145064765450257, 35.854658644169803 ], [ 140.146191178140327, 35.854728658511895 ], [ 140.147320491008315, 35.854704853531537 ], [ 140.148440942779047, 35.854587477165573 ], [ 140.149540864559725, 35.854377751846116 ], [ 140.150608801484566, 35.854077861756259 ], [ 140.151633632119228, 35.85369093006009 ], [ 140.152604684375973, 35.853220986345889 ], [ 140.153511846726758, 35.852672924622681 ], [ 140.154844948630029, 35.851778142604203 ], [ 140.154904444360398, 35.851763322246342 ], [ 140.155230977727825, 35.851710180375491 ], [ 140.155417090648456, 35.85170309142039 ], [ 140.157471093426267, 35.852267036867453 ], [ 140.157883163600331, 35.852372924411888 ], [ 140.16246020933994, 35.853469465220414 ], [ 140.162855174278889, 35.853587272086095 ], [ 140.1628576209676, 35.853588003220231 ], [ 140.163338483597698, 35.853731447381783 ], [ 140.163967935906044, 35.85391937157479 ], [ 140.164949018089544, 35.854170838995827 ], [ 140.165954536679948, 35.854347093007291 ], [ 140.166975810696016, 35.854446611948106 ], [ 140.168004022999838, 35.854468536640155 ], [ 140.169030296494668, 35.854412677812924 ], [ 140.170045770843188, 35.85427951773859 ], [ 140.171041679039973, 35.854070206063639 ], [ 140.172009423174359, 35.853786549873114 ], [ 140.172940648725671, 35.853430998073769 ], [ 140.173452775164293, 35.853211279093145 ], [ 140.174118993567134, 35.85299622706254 ], [ 140.174126138235351, 35.852994347368487 ], [ 140.175147703214492, 35.852725815172334 ], [ 140.175465571133088, 35.852642376817982 ], [ 140.17657657672305, 35.852412250149477 ], [ 140.177001698981769, 35.852348444670369 ], [ 140.17750611606229, 35.852272758376046 ], [ 140.177693350576504, 35.852244571563162 ], [ 140.179245296799934, 35.851914717159374 ], [ 140.179992617510862, 35.851707759091134 ], [ 140.18055713686914, 35.85153734274904 ], [ 140.181910119306593, 35.851094463057926 ], [ 140.182524679345278, 35.85098338227656 ], [ 140.18378166152749, 35.850691833593324 ], [ 140.184936217160867, 35.850362906360758 ], [ 140.18633060845724, 35.849875954071862 ], [ 140.186782665227298, 35.849687242081686 ], [ 140.186955142729829, 35.849615234484546 ], [ 140.18739102454893, 35.849423104334541 ], [ 140.188820254171588, 35.848758997595716 ], [ 140.1915039762969, 35.847512023712689 ], [ 140.192404946548663, 35.847093139249012 ], [ 140.192425282652493, 35.847083661079949 ], [ 140.194603206345022, 35.846066057077557 ], [ 140.196106466745931, 35.845363626927707 ], [ 140.197153291562614, 35.844877208699522 ], [ 140.198012987445537, 35.84447773019405 ], [ 140.198088802948035, 35.844447996141902 ], [ 140.198694164804408, 35.844319671745104 ], [ 140.200209246775216, 35.844142747711317 ], [ 140.201265809076148, 35.844043262666091 ], [ 140.201277328898243, 35.844042199804534 ], [ 140.202271107376788, 35.843948624826105 ], [ 140.202425909380224, 35.844075097680914 ], [ 140.203291306150732, 35.844711291752652 ], [ 140.203740762594407, 35.845008263660517 ], [ 140.204870671737297, 35.845663667746948 ], [ 140.205579842668755, 35.846022702138562 ], [ 140.206402089504792, 35.846470588114514 ], [ 140.207210132685873, 35.846871131332257 ], [ 140.208057234842386, 35.847214037951318 ], [ 140.208515055010849, 35.847379892321506 ], [ 140.209465938089153, 35.847682413274534 ], [ 140.210447012832276, 35.847912323240543 ], [ 140.210790092154326, 35.847978941994704 ], [ 140.211268464404981, 35.848071958205828 ], [ 140.212519274759728, 35.848254120289198 ], [ 140.213155454686785, 35.848316351749801 ], [ 140.214297686907571, 35.848379534167911 ], [ 140.215730003843333, 35.84839830324831 ], [ 140.216215214730539, 35.848414428544672 ], [ 140.217345964135433, 35.84845197001377 ], [ 140.217680293678939, 35.848479413503952 ], [ 140.219388915588354, 35.848619005131688 ], [ 140.220963350986125, 35.848746800924339 ], [ 140.222757628713339, 35.848976406668235 ], [ 140.222768924611614, 35.848977847199016 ], [ 140.223286595295832, 35.849043639975591 ], [ 140.223298573199514, 35.849045171007191 ], [ 140.225367961792045, 35.84930817549548 ], [ 140.226580090893009, 35.849505294133643 ], [ 140.226602426161975, 35.849508906767824 ], [ 140.227601318749464, 35.849669599564528 ], [ 140.229734792444674, 35.850013096885348 ], [ 140.23078818446541, 35.850140178252666 ], [ 140.231851701924256, 35.850184265951391 ], [ 140.232915501682015, 35.850144951960729 ], [ 140.233969737989128, 35.850022600162049 ], [ 140.23500465370239, 35.84981834296692 ], [ 140.236010670677672, 35.849534070825335 ], [ 140.236978478497036, 35.849172414711589 ], [ 140.23789912070626, 35.848736721750818 ], [ 140.23876407776072, 35.848231024212971 ], [ 140.23956534590954, 35.847660002162172 ], [ 140.240295511285723, 35.847028940108977 ], [ 140.240947818515735, 35.84634367806823 ], [ 140.241516233212707, 35.845610557477045 ], [ 140.241995497775861, 35.844836362475178 ], [ 140.242381179980697, 35.844028257092987 ], [ 140.242952914886217, 35.842635268662796 ], [ 140.243324123444097, 35.841730899721007 ], [ 140.243613947161947, 35.840891831352508 ], [ 140.243802874390695, 35.840033892032125 ], [ 140.24388914154099, 35.839165105313754 ], [ 140.243914332498406, 35.838530383676293 ], [ 140.243906834739334, 35.838307438450073 ], [ 140.244658538670649, 35.838111399513821 ], [ 140.245673705861634, 35.837752119547687 ], [ 140.24663971968431, 35.837312070851695 ], [ 140.247546918343772, 35.83679565508136 ], [ 140.248298854630093, 35.836269210718072 ], [ 140.249125769929378, 35.836008508185287 ], [ 140.25011683715104, 35.835598702158919 ], [ 140.251052422538521, 35.83511001787403 ], [ 140.251923090221936, 35.834547384551847 ], [ 140.252720059673749, 35.833916477199871 ], [ 140.253435294283861, 35.83322365932591 ], [ 140.254061582402556, 35.832475918708226 ], [ 140.254592610034422, 35.831680796871375 ], [ 140.254996434397299, 35.830996323499129 ], [ 140.255424974768204, 35.830166031875372 ], [ 140.255749614330966, 35.829305056445527 ], [ 140.255884970391406, 35.828755506832834 ], [ 140.256533536243808, 35.828441185790901 ], [ 140.257429968650001, 35.827900284062572 ], [ 140.258254965470002, 35.827288628848549 ], [ 140.259000143272317, 35.826612436943243 ], [ 140.259657930467853, 35.825878580915358 ], [ 140.260221644229205, 35.825094519211142 ], [ 140.260685558348911, 35.824268220307211 ], [ 140.261044961348404, 35.823408081685955 ], [ 140.261296204250527, 35.822522844459108 ], [ 140.261436737534211, 35.821621504508855 ], [ 140.261465136901137, 35.820713221050845 ], [ 140.261381117597949, 35.819807223549489 ], [ 140.261227388208226, 35.818817263411496 ], [ 140.261228267074898, 35.818795879132487 ], [ 140.26124806004745, 35.818324799382744 ], [ 140.261252752108845, 35.818178282687057 ], [ 140.261262534662478, 35.817734354536114 ], [ 140.261285301913517, 35.817544492365599 ], [ 140.261285527674119, 35.817542664437219 ], [ 140.261299921967691, 35.817422663108381 ], [ 140.261318307299774, 35.817251086286475 ], [ 140.26149874614336, 35.816228578651021 ], [ 140.261632746874881, 35.81546848234008 ], [ 140.261641500899344, 35.815417803858409 ], [ 140.261881105010815, 35.814001539004828 ], [ 140.262101320881271, 35.812701943012044 ], [ 140.262203736868912, 35.81209589128143 ], [ 140.262206501430455, 35.812079419160426 ], [ 140.262366929915771, 35.811116910675089 ], [ 140.262464602355521, 35.810111317127785 ], [ 140.262473529681216, 35.809794718475288 ], [ 140.26248073462466, 35.809617762638268 ], [ 140.262521141736698, 35.808635814315551 ], [ 140.262574151517697, 35.807347752947258 ], [ 140.262650859585705, 35.806028578845577 ], [ 140.262662517677882, 35.805498328768721 ], [ 140.262645126672936, 35.80426814997162 ], [ 140.262651849815001, 35.801040371654402 ], [ 140.262657898214684, 35.800974073141688 ], [ 140.26268336690805, 35.800036143868603 ], [ 140.262672162521056, 35.799731452376228 ], [ 140.262672105633811, 35.7997297527236 ], [ 140.262621994760224, 35.798366983475539 ], [ 140.262617145857803, 35.798257393456872 ], [ 140.262554474648255, 35.797045733789872 ], [ 140.262551623791126, 35.796994131247452 ], [ 140.262533813148252, 35.796691079602716 ], [ 140.262413161739516, 35.795727130150183 ], [ 140.262322788294398, 35.795257138590969 ], [ 140.262187656731413, 35.794678657768387 ], [ 140.261526519656115, 35.792278158982946 ], [ 140.261277693281585, 35.791375265242117 ], [ 140.261250633434969, 35.791279518749199 ], [ 140.2610583317188, 35.790615654079012 ], [ 140.260997183657679, 35.790405123248362 ], [ 140.260857279968974, 35.789922724869626 ], [ 140.260771223198589, 35.789626551491764 ], [ 140.260624253648615, 35.789120614040066 ], [ 140.260621967079743, 35.789112765346893 ], [ 140.260873303512227, 35.788926618600961 ], [ 140.261164409116333, 35.788730086704611 ], [ 140.261525026303076, 35.788540170276725 ], [ 140.26238075658739, 35.788104494381074 ], [ 140.262677766381159, 35.787947839908867 ], [ 140.262914670271499, 35.78781845994402 ], [ 140.264002186424875, 35.787225701104653 ], [ 140.264316711890331, 35.787047766817736 ], [ 140.26435031830141, 35.787028043791686 ], [ 140.264628644594666, 35.786864373395225 ], [ 140.265451134033015, 35.786330456316577 ], [ 140.265620390537919, 35.786209431442742 ], [ 140.265683248006695, 35.786164677363224 ], [ 140.266098693351921, 35.785853297010213 ], [ 140.266217020297915, 35.785759956994738 ], [ 140.266226023131793, 35.785752847204968 ], [ 140.266491303357725, 35.785543109427607 ], [ 140.267506757777113, 35.784621707750716 ], [ 140.267711742520021, 35.784407801092037 ], [ 140.267878189927217, 35.784229587304118 ], [ 140.268145683539416, 35.783935675755274 ], [ 140.26871694621903, 35.783243142078028 ], [ 140.268975778861972, 35.782895626834026 ], [ 140.269399752784949, 35.782272042698317 ], [ 140.269761914118419, 35.781623105205348 ], [ 140.269764416392633, 35.781618105667519 ], [ 140.269815920055521, 35.781513329981109 ], [ 140.26988644862783, 35.781367206784552 ], [ 140.269940506534169, 35.781255016868222 ], [ 140.270274970672688, 35.78045159208115 ], [ 140.270515245583596, 35.77962610101536 ], [ 140.270622123821624, 35.779162758486102 ], [ 140.270778123292928, 35.778207678571832 ], [ 140.270808120934731, 35.777244485918096 ], [ 140.270799200772586, 35.776985874329419 ], [ 140.270798141244001, 35.776956824210501 ], [ 140.270770818750663, 35.776246268521831 ], [ 140.270733801464303, 35.775739698367047 ], [ 140.270585532906608, 35.774364433824289 ], [ 140.270583885733856, 35.774349301479937 ], [ 140.270574862128541, 35.774267189073072 ], [ 140.270569204572979, 35.774214519034032 ], [ 140.270458035758594, 35.773183018253199 ], [ 140.270264938672085, 35.77082470923947 ], [ 140.270252244002734, 35.770669012559843 ], [ 140.270193869368455, 35.769959503266442 ], [ 140.270180473695859, 35.769795130015886 ], [ 140.270162401831413, 35.769575125256495 ], [ 140.270116974510643, 35.768999638904091 ], [ 140.270114957397055, 35.768972917292821 ], [ 140.270099911088096, 35.768778477319607 ], [ 140.270093295184665, 35.768698626493908 ], [ 140.27008286768833, 35.768580571057434 ], [ 140.270052967397731, 35.76824029246211 ], [ 140.270020727316989, 35.767942697522869 ], [ 140.269988413127606, 35.767691929234637 ], [ 140.269965563477399, 35.767513944925589 ], [ 140.269964201224582, 35.767503393815034 ], [ 140.269946673079943, 35.767368395592968 ], [ 140.269779115824377, 35.76649231492793 ], [ 140.269729495588422, 35.766335921160483 ], [ 140.270011372249598, 35.766017289098997 ], [ 140.270145025582735, 35.765866095811326 ], [ 140.270190450103598, 35.765814325114015 ], [ 140.270514878049283, 35.76544179667016 ], [ 140.271145607423364, 35.764628879155467 ], [ 140.271666451830754, 35.763765810766131 ], [ 140.271975559760307, 35.76317606486532 ], [ 140.272277254703425, 35.762533636074174 ], [ 140.272410525153276, 35.762213788352746 ], [ 140.272600731818841, 35.761757540133416 ], [ 140.272894720654648, 35.76092208998962 ], [ 140.273045813610253, 35.760398677328929 ], [ 140.273046290814506, 35.760397080151336 ], [ 140.27327599377756, 35.759601222614421 ], [ 140.273633223464316, 35.758363129288099 ], [ 140.273649655414005, 35.75830532507397 ], [ 140.274021224328891, 35.756978351759102 ], [ 140.274472559935901, 35.75565670312433 ], [ 140.274563798732999, 35.755371558661558 ], [ 140.274875054815965, 35.754329306932419 ], [ 140.27488720817405, 35.75428819092231 ], [ 140.275372831943059, 35.752628149441129 ], [ 140.27553053533569, 35.752088226902494 ], [ 140.276000307945537, 35.750479955397928 ], [ 140.276072132375674, 35.75021663073808 ], [ 140.276353934192798, 35.749105218239855 ], [ 140.276545733494601, 35.74801824941531 ], [ 140.276640027634414, 35.747081855086208 ], [ 140.276671941831978, 35.746069297926581 ], [ 140.276598613978592, 35.745381907683878 ], [ 140.276578388119049, 35.745109985108925 ], [ 140.276470065979709, 35.744284830020689 ], [ 140.276269114813147, 35.743471293754745 ], [ 140.275894087156701, 35.742247203975886 ], [ 140.275859741368265, 35.742134758257741 ], [ 140.275760047577478, 35.741831056873011 ], [ 140.275654175182552, 35.741529679260566 ], [ 140.275635039408144, 35.741475839937941 ], [ 140.275505799447586, 35.741116400561239 ], [ 140.275279899364648, 35.740556609438848 ], [ 140.274907303789234, 35.739725813943586 ], [ 140.274479586554179, 35.738901498093881 ], [ 140.273953711792217, 35.738115828684315 ], [ 140.273577566381817, 35.737614740501137 ], [ 140.272972479596945, 35.736890285496202 ], [ 140.272392736048204, 35.736263940865427 ], [ 140.271810019039066, 35.735685925527456 ], [ 140.27117051926794, 35.735149302838487 ], [ 140.270481044545733, 35.734616850010092 ], [ 140.269530740853838, 35.733961624963399 ], [ 140.268496146670799, 35.733397633240529 ], [ 140.267829250493719, 35.733076826036893 ], [ 140.267818860870847, 35.733071834335583 ], [ 140.267639430708783, 35.73298573422089 ], [ 140.266184858539361, 35.732400331895256 ], [ 140.265115370915765, 35.732046879041313 ], [ 140.263253787234731, 35.731414637031307 ], [ 140.262893344533467, 35.731298221682607 ], [ 140.262813624210338, 35.73127378330134 ], [ 140.261602605200892, 35.730965935059402 ], [ 140.260356312593728, 35.730773222956024 ], [ 140.259774413804195, 35.730711184050662 ], [ 140.259771139757845, 35.730710833891465 ], [ 140.259180580595824, 35.730647893749079 ], [ 140.258305958859864, 35.730583359950288 ], [ 140.25753799084822, 35.730551696848266 ], [ 140.25655917947708, 35.730546714145497 ], [ 140.256057848488354, 35.730562270303565 ], [ 140.254622298720733, 35.730683679619496 ], [ 140.254058195790975, 35.730762004267476 ], [ 140.253320912463721, 35.73088556566092 ], [ 140.252365148231917, 35.731073598301258 ], [ 140.251513101895597, 35.731270984424889 ], [ 140.250683167645207, 35.73152335389004 ], [ 140.250087666480681, 35.731726944573758 ], [ 140.248695299969484, 35.732300250138863 ], [ 140.248052836712503, 35.73261299522251 ], [ 140.247300457085998, 35.733013938065319 ], [ 140.246502230805078, 35.73347812716024 ], [ 140.245126183758231, 35.734254694534648 ], [ 140.243713240959266, 35.735052073799075 ], [ 140.242772610081261, 35.73558293951001 ], [ 140.24043161461671, 35.736904585859371 ], [ 140.240383469420152, 35.736931920444796 ], [ 140.238098653490908, 35.73823644138804 ], [ 140.237298762290749, 35.738692985718288 ], [ 140.236599151911378, 35.739092743259121 ], [ 140.235336970603839, 35.739812157506663 ], [ 140.233120005203062, 35.741075747721197 ], [ 140.23309100156257, 35.741092334679109 ], [ 140.231291368223395, 35.742125015341173 ], [ 140.230414420250554, 35.742628304614321 ], [ 140.230411797337638, 35.742629805738218 ], [ 140.229652782048504, 35.743065408218939 ], [ 140.226989546587532, 35.744588227383524 ], [ 140.225478534751744, 35.74545221352578 ], [ 140.225342653524535, 35.745519011494139 ], [ 140.224910661257809, 35.745742646789758 ], [ 140.223605422955529, 35.746453408345182 ], [ 140.223366710992195, 35.746587113792501 ], [ 140.222697843409122, 35.74697235894719 ], [ 140.219656416876404, 35.748724759894834 ], [ 140.219402394632596, 35.748868724449977 ], [ 140.219309340516531, 35.74892204249722 ], [ 140.21891519509424, 35.749150355946661 ], [ 140.218648848917013, 35.749304647695837 ], [ 140.218588578304264, 35.74933960827731 ], [ 140.218072368182931, 35.749639194850978 ], [ 140.217809917851099, 35.749791650315622 ], [ 140.217392585993593, 35.750033994587689 ], [ 140.217278324923171, 35.750101244288992 ], [ 140.21567322809463, 35.751058663373783 ], [ 140.21567323056334, 35.751058666124052 ], [ 140.21566787449504, 35.751061853775198 ], [ 140.215095992161082, 35.751403291956883 ], [ 140.214920875302624, 35.751510027544214 ], [ 140.213784249127684, 35.75221718978473 ], [ 140.213548008508837, 35.752368348420447 ], [ 140.213101354507899, 35.752662215038221 ], [ 140.212341904926745, 35.753162179766562 ], [ 140.211290523188495, 35.753842839793016 ], [ 140.21027437418158, 35.754500256458755 ], [ 140.210028553902049, 35.754664034730773 ], [ 140.209786420524892, 35.754830138377727 ], [ 140.209116105248228, 35.754035865537602 ], [ 140.208431786382164, 35.753225030307675 ], [ 140.208133140514377, 35.752871165656956 ], [ 140.206942587203514, 35.751460071932172 ], [ 140.206647906052552, 35.751127283971584 ], [ 140.205721938108212, 35.750130199419324 ], [ 140.204229266125765, 35.748399215901351 ], [ 140.203831401644806, 35.747831308819634 ], [ 140.203819397513428, 35.747811215306527 ], [ 140.203666063377284, 35.747396989212746 ], [ 140.203665594519038, 35.747395719699149 ], [ 140.20340986958837, 35.746704913768291 ], [ 140.203194279618771, 35.746181126448263 ], [ 140.203065972637773, 35.745898434511126 ], [ 140.202869517310432, 35.745409021596934 ], [ 140.20250547924644, 35.744626919161334 ], [ 140.202054077109125, 35.743875696278231 ], [ 140.201634855429035, 35.743252945799341 ], [ 140.201134682689172, 35.742581138365196 ], [ 140.200564640480621, 35.741947400454634 ], [ 140.200294714303425, 35.741673225966686 ], [ 140.200109797046451, 35.741485387559699 ], [ 140.199526549826942, 35.740939378984052 ], [ 140.198385671227868, 35.739954175026554 ], [ 140.197621882888853, 35.739354937207153 ], [ 140.196791226156421, 35.738818083412134 ], [ 140.196274583687085, 35.738515884422618 ], [ 140.195462064667595, 35.73808334312649 ], [ 140.194606161601115, 35.737710551585877 ], [ 140.193713467219226, 35.737400381070543 ], [ 140.193264064834892, 35.737262900502181 ], [ 140.193113897331159, 35.73721700048926 ], [ 140.192199507864444, 35.736973932909528 ], [ 140.191262671666095, 35.736796572567563 ], [ 140.190310476704099, 35.736686261342548 ], [ 140.1900046863733, 35.736661840062553 ], [ 140.189070728646101, 35.73661966454052 ], [ 140.188135740867153, 35.736642003175788 ], [ 140.187206414268388, 35.736728696114383 ], [ 140.186923111752463, 35.736765079410446 ], [ 140.185993504606614, 35.736918032075359 ], [ 140.185083391030588, 35.737135371282058 ], [ 140.184199466201676, 35.737415498242875 ], [ 140.183230105076234, 35.737762409206717 ], [ 140.182689614191162, 35.737970212998974 ], [ 140.179987881919345, 35.739082636062946 ], [ 140.179341590136005, 35.739304154432268 ], [ 140.178917495582596, 35.739428783893253 ], [ 140.178710263246529, 35.739473046772147 ], [ 140.177241559769783, 35.739422558857953 ], [ 140.176968226768082, 35.739409124842005 ], [ 140.176196219156139, 35.73939320761702 ], [ 140.174903812263011, 35.739403363825389 ], [ 140.174893707814306, 35.739403430230034 ], [ 140.17460410299708, 35.739405699686799 ], [ 140.174157944256223, 35.739416541083983 ], [ 140.172666166989927, 35.739477371643964 ], [ 140.17193033057751, 35.739527499103012 ], [ 140.171042144486222, 35.739612431476317 ], [ 140.170664176572899, 35.73964820620872 ], [ 140.16978692865348, 35.739760503013827 ], [ 140.16892171601566, 35.739900487401869 ], [ 140.168009289572495, 35.740081245857759 ], [ 140.166949952490086, 35.740330380330924 ], [ 140.16581765064484, 35.740651827836658 ], [ 140.165419697518473, 35.740784934322974 ], [ 140.164516499314118, 35.741086082811393 ], [ 140.163366570403809, 35.741534192816161 ], [ 140.163312139043967, 35.741558640282598 ], [ 140.162192506666514, 35.742062184913799 ], [ 140.161413357606023, 35.742447562324756 ], [ 140.160675778801163, 35.742883940327125 ], [ 140.16060497655937, 35.742929576026853 ], [ 140.159813127740421, 35.743440080221461 ], [ 140.157220410649415, 35.745111672543061 ], [ 140.155735492869468, 35.746018671045618 ], [ 140.155129835854893, 35.746387755460184 ], [ 140.154034090357044, 35.747053114644288 ], [ 140.152588623480483, 35.747931207532467 ], [ 140.151832146881674, 35.748380056261631 ], [ 140.151828152080014, 35.748382425330938 ], [ 140.15032107462514, 35.749276621929596 ], [ 140.150290616371421, 35.749294758242442 ], [ 140.148704287573992, 35.75024269946033 ], [ 140.148429163451311, 35.750412544388467 ], [ 140.14793166300214, 35.750729746527234 ], [ 140.147319131992276, 35.751101240225744 ], [ 140.147135030148235, 35.751212894652113 ], [ 140.146667170693803, 35.751539772632974 ], [ 140.146665717481653, 35.751538287040368 ], [ 140.146109353980535, 35.751899922343235 ], [ 140.145672529994812, 35.752199203567656 ], [ 140.144979506418395, 35.752699440293455 ], [ 140.144533863847073, 35.753039450929059 ], [ 140.144104979275284, 35.753385261456714 ], [ 140.143723727534081, 35.753708341678781 ], [ 140.142914830313742, 35.754428837922859 ], [ 140.142424069635894, 35.754934601386701 ], [ 140.141518238999964, 35.755121036147344 ], [ 140.140476769191054, 35.755428545195002 ], [ 140.139478258316046, 35.755819434876109 ], [ 140.138532723572041, 35.756289784009091 ], [ 140.137649651199979, 35.756834874240255 ], [ 140.136837901362696, 35.757449237335997 ], [ 140.136627253674362, 35.757644120222501 ], [ 140.1362865550756, 35.757712174242677 ], [ 140.135100298767071, 35.758070368250365 ], [ 140.134436736065993, 35.758306730671201 ], [ 140.133370732755566, 35.75874369526877 ], [ 140.132368683505575, 35.759271725470491 ], [ 140.131442253084259, 35.759884675247797 ], [ 140.1306022268042, 35.760575409991162 ], [ 140.130493232210398, 35.760675275721709 ], [ 140.130436676383198, 35.760727090631939 ], [ 140.129994324985915, 35.761158757491806 ], [ 140.129754888331718, 35.761407807246712 ], [ 140.129023485901229, 35.762167661221078 ], [ 140.128851459316053, 35.762351170031614 ], [ 140.128207534517259, 35.76305661822142 ], [ 140.12742919338254, 35.763909002369978 ], [ 140.127037746728689, 35.764366589855129 ], [ 140.12663484315118, 35.764870085921707 ], [ 140.126380331582482, 35.765150712216382 ], [ 140.126206578564762, 35.765330292282307 ], [ 140.125838653720422, 35.765733146843296 ], [ 140.125688851899213, 35.765907083858878 ], [ 140.125524014662489, 35.7659465120162 ], [ 140.124469120779537, 35.766246775382236 ], [ 140.123456776844279, 35.766632250776418 ], [ 140.122497314339967, 35.767099004490788 ], [ 140.122262165945529, 35.767241457225914 ], [ 140.121310823925654, 35.767516613893548 ], [ 140.121300234949587, 35.767519668601878 ], [ 140.115690169765571, 35.769142352221998 ], [ 140.114726063287833, 35.769463595553809 ], [ 140.113803304088918, 35.769857321553523 ], [ 140.112930074502003, 35.770320039241525 ], [ 140.112906465408003, 35.770335305323499 ], [ 140.112693390598395, 35.770402320802582 ], [ 140.112692332880926, 35.770402652688304 ], [ 140.112227533455297, 35.770548835663014 ], [ 140.111217476778705, 35.770914755413159 ], [ 140.110257272018828, 35.771361004851769 ], [ 140.110085295459271, 35.771460691226288 ], [ 140.109515371183875, 35.771431714021666 ], [ 140.108951582619341, 35.771257400973191 ], [ 140.107977843181686, 35.771036748545363 ], [ 140.106983457574728, 35.770889449370316 ], [ 140.106508516680719, 35.770837230374092 ], [ 140.105475030125803, 35.770763604805396 ], [ 140.104437625622126, 35.770769210094706 ], [ 140.10371882158492, 35.770800602483547 ], [ 140.102705132335842, 35.770883157102766 ], [ 140.101705060397791, 35.771041365796272 ], [ 140.101229831115859, 35.771135238350183 ], [ 140.099911447228237, 35.771467854456574 ], [ 140.09916679278578, 35.771698108796436 ], [ 140.097806898023435, 35.772206809655259 ], [ 140.097552788173857, 35.772319407360065 ], [ 140.0947308811879, 35.773568365469153 ], [ 140.094720328964542, 35.773573021240189 ], [ 140.094096650114125, 35.773849085006795 ], [ 140.093938055061216, 35.773920662217819 ], [ 140.092256656814243, 35.774694223104525 ], [ 140.091160816819922, 35.7747355285154 ], [ 140.090922246559188, 35.774744565441232 ], [ 140.089893152609903, 35.774764357211353 ], [ 140.088931966839738, 35.774817033020597 ], [ 140.087980048951806, 35.77493765968363 ], [ 140.08704461790137, 35.77512532243064 ], [ 140.086664097447681, 35.775216150389483 ], [ 140.085691617512879, 35.775488870503644 ], [ 140.084754417741351, 35.775834012228998 ], [ 140.083860598984245, 35.776248592459311 ], [ 140.083017887482015, 35.776729027868299 ], [ 140.082801786271574, 35.776864844963157 ], [ 140.082791720816886, 35.776871178486729 ], [ 140.082599496603223, 35.776992275890365 ], [ 140.081690322230827, 35.77763223015328 ], [ 140.080660055105625, 35.778441056867706 ], [ 140.080508874697074, 35.778562037616915 ], [ 140.078621401851393, 35.780101637598221 ], [ 140.077910231275951, 35.780740060652228 ], [ 140.077260512075384, 35.781382548455831 ], [ 140.077260153021598, 35.781382855050666 ], [ 140.077196340869534, 35.781104168869845 ], [ 140.07702421286865, 35.780643488329865 ], [ 140.077021082155483, 35.780631234927803 ], [ 140.0768110958048, 35.779945354784687 ], [ 140.076746962479916, 35.779766118844478 ], [ 140.076683113035301, 35.779587173179138 ], [ 140.076333001058543, 35.77875853122741 ], [ 140.075885797277977, 35.777961511014205 ], [ 140.075675357062153, 35.777666205916638 ], [ 140.075641106023909, 35.777582193456396 ], [ 140.075325174442099, 35.776964662738386 ], [ 140.07513292348483, 35.776624958007744 ], [ 140.074664100956738, 35.775887845457405 ], [ 140.074114047920915, 35.775189010374717 ], [ 140.073654807032426, 35.77470923963461 ], [ 140.07321093218971, 35.774062257210851 ], [ 140.072638615166312, 35.77338241243573 ], [ 140.072615915937035, 35.773360126240519 ], [ 140.072347464311463, 35.772890428733831 ], [ 140.071825661613246, 35.772163574857814 ], [ 140.071222909094587, 35.771479575805216 ], [ 140.070991702885209, 35.77124151458721 ], [ 140.070772958691151, 35.771015958039804 ], [ 140.070591324359071, 35.770833601003325 ], [ 140.070266592499394, 35.77051611892783 ], [ 140.069532995055113, 35.769866423301281 ], [ 140.068724933097769, 35.769278331880912 ], [ 140.06862799728205, 35.769214454059174 ], [ 140.068474999667728, 35.769113831919476 ], [ 140.067697755971068, 35.76864682969569 ], [ 140.066873500110944, 35.768236855303336 ], [ 140.066008514390688, 35.767887033166716 ], [ 140.065108317689322, 35.767562066275254 ], [ 140.06482665457969, 35.767478700209956 ], [ 140.064363473072376, 35.767249679650689 ], [ 140.063570728985582, 35.7669408188519 ], [ 140.063282256770407, 35.766792438958461 ], [ 140.062387168802985, 35.766419957586024 ], [ 140.0614542950143, 35.766115231025459 ], [ 140.06049133706361, 35.765880774945771 ], [ 140.060157194161036, 35.765812728673758 ], [ 140.059862831292406, 35.76576605719535 ], [ 140.059665375112331, 35.765643007264423 ], [ 140.059400935594084, 35.765504762904705 ], [ 140.059391282296474, 35.765496815938839 ], [ 140.058474762866894, 35.764888438105949 ], [ 140.057483823137062, 35.764363251700921 ], [ 140.057242722648482, 35.764249929110477 ], [ 140.056116273364154, 35.763788095778935 ], [ 140.055257890865477, 35.763531127620858 ], [ 140.054650495121621, 35.763221225305614 ], [ 140.053665413064124, 35.762823554418631 ], [ 140.052636766225703, 35.76250754961675 ], [ 140.052376791950138, 35.762439503243804 ], [ 140.051973869113425, 35.762351551146274 ], [ 140.051795882051096, 35.762285379922716 ], [ 140.05150729610213, 35.762197055826562 ], [ 140.050851112123581, 35.762026714333814 ], [ 140.050806606403853, 35.761981959387668 ], [ 140.050072925570134, 35.761372475493275 ], [ 140.049271790043292, 35.760822305049011 ], [ 140.048410388450776, 35.76033638388575 ], [ 140.047496449653977, 35.759919071343525 ], [ 140.047310912062187, 35.759843529471048 ], [ 140.046896076250931, 35.759692491688455 ], [ 140.046803761036387, 35.759643911641803 ], [ 140.046138402252296, 35.759261879543445 ], [ 140.045792856710506, 35.759083283712528 ], [ 140.044836150459815, 35.758641557459647 ], [ 140.043830364539645, 35.758279445690235 ], [ 140.042785439973329, 35.758000527269878 ], [ 140.042726834373155, 35.757987474092815 ], [ 140.042700031188076, 35.757981533707046 ], [ 140.042629493703942, 35.757965977982529 ], [ 140.042259358832695, 35.757884414527538 ], [ 140.041382242659552, 35.757722014066289 ], [ 140.040491838055203, 35.757618247563656 ], [ 140.040233812572012, 35.757596861260431 ], [ 140.038661801517378, 35.757558183114966 ], [ 140.038470719774693, 35.757564570218044 ], [ 140.037402290154205, 35.757642723601613 ], [ 140.036348174103125, 35.757804881070228 ], [ 140.035318287969915, 35.758049517187999 ], [ 140.034322320393755, 35.758374330608369 ], [ 140.033369641239375, 35.758776265702501 ], [ 140.033167812153295, 35.758871805834005 ], [ 140.033075307823054, 35.758915611034638 ], [ 140.032183845608898, 35.759385811125398 ], [ 140.031351809410495, 35.759923526634701 ], [ 140.030893578015167, 35.76028311829451 ], [ 140.02969283645956, 35.759528564846349 ], [ 140.029469855412572, 35.759388450196866 ], [ 140.028772605022965, 35.75895060471408 ], [ 140.02863202958676, 35.758863775283018 ], [ 140.027784839751035, 35.758349100431303 ], [ 140.027770396515336, 35.758340340833165 ], [ 140.027698204782951, 35.75829663198391 ], [ 140.027662653778293, 35.758274931923381 ], [ 140.026735915924547, 35.757766695321969 ], [ 140.025751015398754, 35.757337245117391 ], [ 140.02471799855914, 35.756990961521588 ], [ 140.023647402077984, 35.756731376434502 ], [ 140.022550145551918, 35.756561137453581 ], [ 140.021437420225425, 35.756481980895252 ], [ 140.02127655126128, 35.756477188180078 ], [ 140.021245257127475, 35.756476169204674 ], [ 140.020975572720488, 35.756468116579747 ], [ 140.019841757257666, 35.756481676289823 ], [ 140.01871560410504, 35.756589798542578 ], [ 140.017608951052864, 35.756791346800881 ], [ 140.016533431119086, 35.757084202448432 ], [ 140.015574904364769, 35.757390556880516 ], [ 140.01540240851287, 35.757445790353287 ], [ 140.014929437910666, 35.75759695194786 ], [ 140.014762160611355, 35.757650335820259 ], [ 140.013943334425022, 35.757851032728134 ], [ 140.013582795915653, 35.757936774960022 ], [ 140.012698754183788, 35.758180444333433 ], [ 140.011843059989786, 35.758483995577443 ], [ 140.01183417537294, 35.758487517867344 ], [ 140.011822453011149, 35.758492172142212 ], [ 140.011638525219951, 35.758565308445071 ], [ 140.011620997659293, 35.75857228051904 ], [ 140.01160899823347, 35.758577061012097 ], [ 140.011438453985903, 35.758645108568246 ], [ 140.01054213621282, 35.759045606567248 ], [ 140.009695006742987, 35.759511844505987 ], [ 140.008904302213011, 35.760039840029194 ], [ 140.008176777695866, 35.760625083196622 ], [ 140.007518649005846, 35.761262574975653 ], [ 140.007463096053385, 35.761321732882102 ], [ 140.007450830636998, 35.761334818963711 ], [ 140.007360551670018, 35.761431320835008 ], [ 140.006692193258175, 35.762144755012045 ], [ 140.006548193883134, 35.762301982596725 ], [ 140.006384577754915, 35.762484744349081 ], [ 140.00624586535011, 35.762639965158449 ], [ 140.005613267052325, 35.763432025144631 ], [ 140.005085889994632, 35.764273715296923 ], [ 140.00466953465704, 35.765155783515041 ], [ 140.004368781620457, 35.766068533541535 ], [ 140.004186941068127, 35.767001931511444 ], [ 140.004126016230515, 35.767945716226599 ], [ 140.004125997195587, 35.768083212728051 ], [ 140.004163145462769, 35.768822374937656 ], [ 140.004274546045366, 35.769556564680308 ], [ 140.00449357318314, 35.770634638908035 ], [ 140.004747627569571, 35.77157209337701 ], [ 140.004973244911525, 35.772234773521625 ], [ 140.005075873120518, 35.772536316409891 ], [ 140.005228158039245, 35.772945764982047 ], [ 140.005540012892851, 35.773717738689797 ], [ 140.005668025863287, 35.77403419730156 ], [ 140.005699726419948, 35.774111388733282 ], [ 140.005721380583083, 35.774163336351862 ], [ 140.005811132044897, 35.774378308280994 ], [ 140.006163049299232, 35.775113855503122 ], [ 140.006592604967437, 35.77582148503695 ], [ 140.006712317710992, 35.775998710502499 ], [ 140.006870194982099, 35.776232193027063 ], [ 140.006981979926479, 35.77639727150838 ], [ 140.007174175552422, 35.776681343862371 ], [ 140.007976378176863, 35.777879699881218 ], [ 140.008007466287523, 35.777934831201449 ], [ 140.008106476020743, 35.778110206723063 ], [ 140.008588592269547, 35.778867544312178 ], [ 140.009023867748368, 35.77941700540503 ], [ 140.008567961435944, 35.780251681595125 ], [ 140.008216755099284, 35.781124605093758 ], [ 140.007976404890002, 35.782022123537381 ], [ 140.007849410966202, 35.782934914876684 ], [ 140.007837096288341, 35.783853498113416 ], [ 140.007939592717833, 35.78476833176687 ], [ 140.008035913783203, 35.78531723285586 ], [ 140.008283535088907, 35.786319038078986 ], [ 140.008668745666682, 35.787291565015849 ], [ 140.009186598344883, 35.788222311343034 ], [ 140.009311847187035, 35.788417214389135 ], [ 140.009409593188394, 35.788569560293496 ], [ 140.009422550661583, 35.788629081492218 ], [ 140.00963244097025, 35.789207705072847 ], [ 140.009700339054291, 35.789443086676684 ], [ 140.009929458372511, 35.790118356901331 ], [ 140.010222261375674, 35.790777087473728 ], [ 140.010326973134767, 35.79098681734677 ], [ 140.010821040663927, 35.791844285108482 ], [ 140.011422841707287, 35.792654769284525 ], [ 140.011573374472164, 35.792835339307395 ], [ 140.012206321349737, 35.793521795564381 ], [ 140.012501877121537, 35.7937857359532 ], [ 140.012510599454544, 35.79380025904748 ], [ 140.013036823758711, 35.794504890660093 ], [ 140.01363991492741, 35.795167378379219 ], [ 140.014314823660328, 35.795782173609652 ], [ 140.014458275415336, 35.795890953324026 ], [ 140.01446598273904, 35.795900694102968 ], [ 140.01491988450806, 35.796431498443809 ], [ 140.014962185431983, 35.796477364171587 ], [ 140.015314808807517, 35.796949844505548 ], [ 140.015989539244089, 35.797676760185404 ], [ 140.016385145763536, 35.798060925998868 ], [ 140.016552575671057, 35.798254292793111 ], [ 140.016662292342346, 35.798450288994673 ], [ 140.016865149575409, 35.798793287834975 ], [ 140.016891603961682, 35.798835702753962 ], [ 140.016917184515677, 35.798901344088932 ], [ 140.017329025893446, 35.799689448781756 ], [ 140.01783084418264, 35.800442145201743 ], [ 140.018369481034796, 35.801093803610179 ], [ 140.018469497750687, 35.801287610399179 ], [ 140.018981308528964, 35.802059353097839 ], [ 140.0192920371573, 35.802435215543056 ], [ 140.019550498851203, 35.803310011881358 ], [ 140.019611858676228, 35.80345132140382 ], [ 140.019622990434556, 35.803579460850166 ], [ 140.019848269160207, 35.804572474062446 ], [ 140.020208497632154, 35.805538726194534 ], [ 140.020270012058575, 35.8056756235923 ], [ 140.020305652874299, 35.805744612004297 ], [ 140.020234048326074, 35.806101696876397 ], [ 140.020165273324494, 35.806993588957226 ], [ 140.020205257320583, 35.807886644982169 ], [ 140.020243644667516, 35.808115759954134 ], [ 140.020246650292023, 35.808172946149639 ], [ 140.020368355240919, 35.808939672291693 ], [ 140.020422549713544, 35.809194569396801 ], [ 140.020611643949024, 35.809909893137146 ], [ 140.020678259830049, 35.810120040445589 ], [ 140.020738262714815, 35.810323953620234 ], [ 140.020815884589069, 35.810620431262734 ], [ 140.021070311534004, 35.811898208775254 ], [ 140.021113670357067, 35.812101244646442 ], [ 140.021215117674188, 35.812546103461372 ], [ 140.021410215969865, 35.813425401522196 ], [ 140.021647712131937, 35.814264484167303 ], [ 140.021982433764066, 35.815081277461871 ], [ 140.022411328558348, 35.815868325979814 ], [ 140.02269211607404, 35.816323592017781 ], [ 140.02299172950768, 35.816776650913319 ], [ 140.023045884809505, 35.816853221592275 ], [ 140.023109451850047, 35.817249957415072 ], [ 140.023398388863995, 35.818212578226323 ], [ 140.023815332761444, 35.819143545793487 ], [ 140.023929746234984, 35.819361050160268 ], [ 140.024019109018809, 35.819530760968547 ], [ 140.024291243255817, 35.820008528194222 ], [ 140.024570370485918, 35.820463270717916 ], [ 140.025143555484561, 35.821286046911617 ], [ 140.025819476473742, 35.822055360959588 ], [ 140.026590689568707, 35.82276273722858 ], [ 140.027448700359798, 35.823400382251364 ], [ 140.028384057456265, 35.823961270647473 ], [ 140.028749913326067, 35.824157406714882 ], [ 140.028975158679259, 35.824268351688744 ], [ 140.029353215588827, 35.824839879157373 ], [ 140.029457342304426, 35.824993683115636 ], [ 140.030915271529778, 35.82709833611419 ], [ 140.030965881041624, 35.827171776116643 ], [ 140.03201744173839, 35.828695957233322 ], [ 140.032028662030456, 35.828712225848214 ], [ 140.032326552579917, 35.829118755515708 ], [ 140.032692083414474, 35.829589062567841 ], [ 140.033461477245453, 35.830459643654834 ], [ 140.033692572308297, 35.830690767744152 ], [ 140.034705750681582, 35.831704047392492 ], [ 140.035105045520368, 35.83210366438211 ], [ 140.035265981979506, 35.832261042672904 ], [ 140.035558715756281, 35.832540777256121 ], [ 140.036436925226894, 35.833380252571992 ], [ 140.03776785016845, 35.834652715499473 ], [ 140.038858361124852, 35.835707628033184 ], [ 140.039350849973431, 35.836184069730287 ], [ 140.040492953440577, 35.837289182354318 ], [ 140.040827513525159, 35.837620055270456 ], [ 140.041128242739489, 35.837917771397606 ], [ 140.041875219782526, 35.838585957190197 ], [ 140.042700614679944, 35.83918988347606 ], [ 140.043018499320368, 35.839400004173378 ], [ 140.043029875726205, 35.83940754075455 ], [ 140.043385165558817, 35.839642363260424 ], [ 140.044177922728068, 35.840120228327265 ], [ 140.04501978333505, 35.840538730990545 ], [ 140.045904062170166, 35.840894547587304 ], [ 140.046895703604179, 35.841249717710774 ], [ 140.047728764379855, 35.841551746347911 ], [ 140.047732357933057, 35.841552932618889 ], [ 140.04823149817696, 35.842016128099701 ], [ 140.049055710225957, 35.842639934460479 ], [ 140.049953455922434, 35.843192381162901 ], [ 140.050915457505539, 35.843667758096352 ], [ 140.051931772498961, 35.8440611516559 ], [ 140.052991896524787, 35.844368495573555 ], [ 140.054084871951204, 35.844586612986355 ], [ 140.055199401247023, 35.844713249304647 ], [ 140.056323963866362, 35.844747095538956 ], [ 140.057446935450088, 35.844687801843492 ], [ 140.05857540021114, 35.84458109579478 ], [ 140.059651145214531, 35.844435336219725 ], [ 140.060653660989288, 35.844215163845661 ], [ 140.060920580579392, 35.84424041398367 ], [ 140.06201519862671, 35.844255322649602 ], [ 140.063106271225337, 35.844182118965307 ], [ 140.063884138189167, 35.844098226003041 ], [ 140.066317788123968, 35.843834286447368 ], [ 140.066941492485881, 35.843751821700849 ], [ 140.067131797665922, 35.843722097571693 ], [ 140.067340645441647, 35.843689340967657 ], [ 140.068432911766592, 35.843470620347532 ], [ 140.068898763765191, 35.843335246433981 ], [ 140.069183596542985, 35.843281093843842 ], [ 140.069596488311419, 35.84320258274861 ], [ 140.069728280952916, 35.843177425369774 ], [ 140.07050510083684, 35.843004621136991 ], [ 140.072887295018376, 35.842398036295144 ], [ 140.072951209409268, 35.842381802693488 ], [ 140.074134048235919, 35.842019854307324 ], [ 140.075258508667616, 35.84155049732508 ], [ 140.07585076417223, 35.841267415513286 ], [ 140.075864917000473, 35.841260639295406 ], [ 140.076198336063896, 35.841100730057022 ], [ 140.07620166813291, 35.841099139369945 ], [ 140.077528223995103, 35.840462959502503 ], [ 140.078082800970293, 35.840196869610907 ], [ 140.078692298466706, 35.840263038572424 ], [ 140.07979865877013, 35.840292326537572 ], [ 140.080715569747383, 35.840279237609337 ], [ 140.0808505815302, 35.840332588712187 ], [ 140.081901781726089, 35.840645669201493 ], [ 140.082758337630736, 35.840861468227764 ], [ 140.082959266101398, 35.840912246181112 ], [ 140.084042207951228, 35.841137801076442 ], [ 140.085147569718799, 35.841273269917707 ], [ 140.086264076759562, 35.841317270939363 ], [ 140.087380340635804, 35.841269355345581 ], [ 140.088484975396625, 35.841130011891913 ], [ 140.0895667138318, 35.840900661894366 ], [ 140.090614522508531, 35.84058364471705 ], [ 140.091617714411711, 35.840182193887365 ], [ 140.092566058033668, 35.839700404083203 ], [ 140.093449881795891, 35.839143189330819 ], [ 140.093502607066512, 35.839102393551201 ], [ 140.094660563131526, 35.839802819211116 ] ] ] } }
]
}
